BEIDOU-3 M14            
1 43623U 18072B   26131.88825295 -.00000026  00000+0  00000+0 0  9993
2 43623  56.5962  63.8514 0006663 345.9990  13.9692  1.86231557 51970
BEIDOU-3 M16            
1 43647U 18078A   26132.58110616 -.00000042  00000+0  00000+0 0  9995
2 43647  54.1235 301.2337 0007888  39.7173 320.3286  1.86232301 51495
BEIDOU-3 M15            
1 43648U 18078B   26131.09956331 -.00000038  00000+0  00000+0 0  9998
2 43648  54.1206 301.2863 0005058  51.6286 308.4083  1.86232622 51480
BEIDOU-3 G1             
1 43683U 18085A   26132.56814142 -.00000093  00000+0  00000+0 0  9992
2 43683   2.9835  98.3131 0007599 338.9229 157.6237  1.00272877 27705
BEIDOU-3 M17            
1 43706U 18093A   26131.35359073  .00000068  00000+0  00000+0 0  9991
2 43706  54.1670 183.5464 0009480 290.8488 131.5748  1.86228417 50852
BEIDOU-3 M18            
1 43707U 18093B   26131.66046264  .00000072  00000+0  00000+0 0  9996
2 43707  54.1678 183.5281 0007382 321.8365  38.1924  1.86226872 50857
BEIDOU-3 IGSO-1         
1 44204U 19023A   26131.75131156 -.00000223  00000+0  00000+0 0  9997
2 44204  58.6454  38.0276 0023914 234.3447 343.0032  1.00250952  6847
BEIDOU-2 G8             
1 44231U 19027A   26132.63639390 -.00000233  00000+0  00000+0 0  9993
2 44231   1.5675  74.4155 0010918 282.0012 247.6228  1.00273613 25720
BEIDOU-3 IGSO-2         
1 44337U 19035A   26132.65390359 -.00000046  00000+0  00000+0 0  9992
2 44337  55.2385 159.1745 0039679 215.7907 210.7620  1.00277740 25315
BEIDOU-3 M24            
1 44542U 19061A   26132.26653438  .00000079  00000+0  00000+0 0  9991
2 44542  54.3947 183.9396 0008068   3.0711 357.0175  1.86229288 45122
BEIDOU-3 M23            
1 44543U 19061B   26131.34946017  .00000067  00000+0  00000+0 0  9995
2 44543  54.3931 183.9390 0005138 344.4737  32.5944  1.86227672 45118
BEIDOU-3 IGSO-3         
1 44709U 19073A   26120.85038409 -.00000212  00000+0  00000+0 0  9996
2 44709  54.8842 281.4069 0042404 188.8195 170.9972  1.00251230 23982
BEIDOU-3 M22            
1 44793U 19078A   26131.03190575 -.00000038  00000+0  00000+0 0  9995
2 44793  53.9711 301.1346 0007176  47.2274 312.8242  1.86227517 43952
BEIDOU-3 M21            
1 44794U 19078B   26130.09800295 -.00000037  00000+0  00000+0 0  9997
2 44794  53.9450 301.1295 0004992  44.9662 315.0658  1.86228028 43947
BEIDOU-3 M19            
1 44864U 19090A   26128.49025716 -.00000021  00000+0  00000+0 0  9990
2 44864  56.5258  64.1028 0019338 296.1784 262.9647  1.86231851 43492
BEIDOU-3 M20            
1 44865U 19090B   26132.62828495 -.00000030  00000+0  00000+0 0  9996
2 44865  56.5307  64.0010 0016968 309.0704 234.0077  1.86231636 43555
BEIDOU-3 G2             
1 45344U 20017A   26132.55234969 -.00000128  00000+0  00000+0 0  9997
2 45344   2.7923  46.7688 0002701   9.6062  92.8449  1.00272858 22909
BEIDOU-3 G3             
1 45807U 20040A   26132.62963387 -.00000340  00000+0  00000+0 0  9994
2 45807   2.3596  67.3394 0003412 333.7955 166.4559  1.00275866 21710
BEIDOU-3 G4             
1 56564U 23066A   26132.63544056 -.00000271  00000+0  00000+0 0  9999
2 56564   0.5339 323.0055 0003494 160.8050 115.3291  1.00266330 11034
BEIDOU-3 M28            
1 58654U 23207A   26132.32302171 -.00000030  00000+0  00000+0 0  9997
2 58654  55.7225  63.5128 0004244 330.2096  29.7521  1.86229701 16175
BEIDOU-3 M26            
1 58655U 23207B   26132.12051808 -.00000029  00000+0  00000+0 0  9992
2 58655  55.7245  63.5061 0004480 309.5108  50.4360  1.86229680 16155
BEIDOU-3 M25            
1 61186U 24168B   26131.38196060 -.00000038  00000+0  00000+0 0  9999
2 61186  54.5076 303.5215 0003163 314.2188  27.8013  1.86230138 11094
BEIDOU-3 M27            
1 61187U 24168C   26132.54827634 -.00000042  00000+0  00000+0 0  9992
2 61187  54.5022 303.4639 0002260  42.9513 136.0404  1.86230155  8596
